BEIDOU 3 (C01)          
1 36287U 10001A   22339.65320578 -.00000270  00000+0  00000+0 0  9991
2 36287   1.8107  50.4358 0001565 249.2531 150.3471  1.00269891 47236
BEIDOU 5 (C06)          
1 36828U 10036A   22339.49171821 -.00000015  00000+0  00000+0 0  9994
2 36828  54.1983 174.6668 0030512 183.1604 357.7425  1.00249344 45291
BEIDOU 6 (C04)          
1 37210U 10057A   22339.64813391 -.00000101  00000+0  00000+0 0  9991
2 37210   0.8525  47.2135 0006858 164.8935 255.6254  1.00270237 44357
BEIDOU 7 (C07)          
1 37256U 10068A   22339.64072341 -.00000224  00000+0  00000+0 0  9991
2 37256  49.9077 287.5963 0021342 207.3214 275.5369  1.00252311 43865
BEIDOU 8 (C08)          
1 37384U 11013A   22339.09822832 -.00000216  00000+0  00000+0 0  9992
2 37384  60.5380  52.5788 0024288 185.3665 338.4401  1.00262833 42736
BEIDOU 9 (C09)          
1 37763U 11038A   22339.28634273  .00000059  00000+0  00000+0 0  9995
2 37763  54.4767 177.1708 0100943 227.5796 226.2273  1.00287807 41717
BEIDOU 10 (C10)         
1 37948U 11073A   22339.22597358 -.00000172  00000+0  00000+0 0  9992
2 37948  50.0293 287.2494 0085120 220.9320 100.2639  1.00255258 40465
BEIDOU 11 (C05)         
1 38091U 12008A   22339.62892807  .00000068  00000+0  00000+0 0  9995
2 38091   1.9552  70.9331 0009073 314.9056 333.6957  1.00268329 39543
BEIDOU 12 (C11)         
1 38250U 12018A   22339.42416536 -.00000092  00000+0  00000+0 0  9990
2 38250  56.6367 347.9096 0025098 255.7585 103.2860  1.86234373 72266
BEIDOU 13 (C12)         
1 38251U 12018B   22338.82177015 -.00000090  00000+0  00000+0 0  9998
2 38251  56.5522 347.2424 0016020 258.1147 101.1655  1.86234175 72251
BEIDOU 15 (C14)         
1 38775U 12050B   22339.55667677 -.00000022  00000+0  00000+0 0  9999
2 38775  55.5059 105.9290 0010877 331.2676 356.3181  1.86231285 69646
BEIDOU 16 (C02)         
1 38953U 12059A   22337.47189470 -.00000167  00000+0  00000+0 0  9995
2 38953   1.3416  81.8663 0024795 291.8037 312.4328  1.00267836 37099
BEIDOU 17 (C31)         
1 40549U 15019A   22339.29039133 -.00000186  00000+0  00000+0 0  9991
2 40549  51.5893 310.7651 0037597 200.6524 121.0631  1.00260143 28144
BEIDOU 18 (C57)         
1 40748U 15037A   22339.50757877 -.00000094  00000+0  00000+0 0  9996
2 40748  55.8000 345.9818 0002973 325.3828  42.9303  1.86233324 50102
BEIDOU 19 (C58)         
1 40749U 15037B   22338.75447880 -.00000091  00000+0  00000+0 0  9990
2 40749  55.8063 345.9969 0005963 301.1947  56.2928  1.86232960 50077
BEIDOU 20 (C18)         
1 40938U 15053A   22338.79355347 -.00000157  00000+0  00000+0 0  9991
2 40938  51.2378 273.9122 0044641 199.2753 339.3814  1.00254674 26416
BEIDOU IGSO-6 (C13)     
1 41434U 16021A   22339.09596212 -.00000184  00000+0  00000+0 0  9991
2 41434  58.3498  51.0773 0049727 220.8189 290.4498  1.00291742 24544
BEIDOU-2 G7 (C03)       
1 41586U 16037A   22339.49302569 -.00000343  00000+0  00000+0 0  9997
2 41586   1.7599  69.5762 0007712 346.7398 305.9655  1.00267787 23858
BEIDOU-3 M1 (C19)       
1 43001U 17069A   22339.35481382 -.00000020  00000+0  00000+0 0  9995
2 43001  55.6576 105.9587 0007677 287.1237  61.5280  1.86231513 34577
BEIDOU-3 M2 (C20)       
1 43002U 17069B   22339.31268137 -.00000019  00000+0  00000+0 0  9991
2 43002  55.6582 105.9957 0005416 318.5109  44.6963  1.86231279 34571
BEIDOU-3 M3 (C27)       
1 43107U 18003A   22339.32948753 -.00000095  00000+0  00000+0 0  9990
2 43107  55.2504 346.8297 0003136  45.6802 135.1871  1.86232129 33337
BEIDOU-3 M4 (C28)       
1 43108U 18003B   22338.53779722 -.00000092  00000+0  00000+0 0  9998
2 43108  55.2467 346.8452 0004623 256.5808 156.4348  1.86230906 33325
BEIDOU-3 M5 (C21)       
1 43207U 18018A   22338.90254160 -.00000015  00000+0  00000+0 0  9994
2 43207  55.6168 106.0823 0003436   4.2669 355.6978  1.86231472 32712
BEIDOU-3 M6 (C22)       
1 43208U 18018B   22339.50616079 -.00000021  00000+0  00000+0 0  9990
2 43208  55.6171 106.0667 0005312 299.3978  60.5098  1.86231517 32724
BEIDOU-3 M7 (C29)       
1 43245U 18029A   22339.45676506 -.00000095  00000+0  00000+0 0  9999
2 43245  55.1595 344.5810 0001734 259.8634 276.9129  1.86232574 31870
BEIDOU-3 M8 (C30)       
1 43246U 18029B   22339.39008387 -.00000095  00000+0  10000-3 0  9994
2 43246  55.1561 344.6126 0003925 336.6400 202.1051  1.86232758 31862
BEIDOU IGSO-7 (C16)     
1 43539U 18057A   22338.86818348 -.00000032  00000+0  00000+0 0  9993
2 43539  55.0866 174.2251 0051163 225.1394  99.9751  1.00257961 16211
BEIDOU-3 M9 (C23)       
1 43581U 18062A   22337.48638101  .00000010  00000+0  00000+0 0  9995
2 43581  54.2318 226.3030 0003401 306.6604 247.2061  1.86232007 29579
BEIDOU-3 M10 (C24)      
1 43582U 18062B   22338.46289587  .00000022  00000+0  00000+0 0  9998
2 43582  54.2297 226.2592 0006854  16.6817 203.8902  1.86232086 29598
BEIDOU-3 M11 (C25)      
1 43602U 18067A   22337.27961019  .00000010  00000+0  00000+0 0  9998
2 43602  54.3153 224.9293 0007779  14.0006 174.2075  1.86231565 29060
BEIDOU-3 M12 (C26)      
1 43603U 18067B   22338.47189566  .00000026  00000+0  00000+0 0  9998
2 43603  54.3121 224.8546 0004761   6.7551 171.1702  1.86231496 29108
BEIDOU-3 M13 (C32)      
1 43622U 18072A   22338.69619712 -.00000013  00000+0  00000+0 0  9997
2 43622  55.5846 105.6378 0004435 277.2186  79.8955  1.86231494 28619
BEIDOU-3 M14 (C33)      
1 43623U 18072B   22339.64465751 -.00000024  00000+0  00000+0 0  9998
2 43623  55.5876 105.5986 0002055 318.4309  44.8167  1.86231437 28645
BEIDOU-3 M15 (C34)      
1 43647U 18078A   22338.98860388 -.00000094  00000+0  10000-3 0  9993
2 43647  55.0549 344.7416 0006166 352.5015 186.7067  1.86232483 28139
BEIDOU-3 M16 (C35)      
1 43648U 18078B   22339.53187144 -.00000096  00000+0  00000+0 0  9995
2 43648  55.0509 344.7286 0003764 355.2373  95.6597  1.86232199 28162
BEIDOU-3 G1 (C59)       
1 43683U 18085A   22339.58567457 -.00000267  00000+0  00000+0 0  9996
2 43683   1.1200 141.7317 0004341  72.9088 210.5267  1.00266988 15122
BEIDOU-3 M17 (C36)      
1 43706U 18093A   22337.39874471  .00000009  00000+0  00000+0 0  9998
2 43706  54.3126 226.2031 0008041 288.0544  71.9281  1.86231915 27466
BEIDOU-3 M18 (C37)      
1 43707U 18093B   22338.53514444  .00000024  00000+0  00000+0 0  9994
2 43707  54.3143 226.1554 0007829 316.1172 177.1654  1.86232347 27494
BEIDOU-3 IGSO-1 (C38)   
1 44204U 19023A   22338.96398779 -.00000247  00000+0  00000+0 0  9997
2 44204  56.8107  51.1512 0024297 194.5145 292.9668  1.00258364 13422
BEIDOU-2 G8             
1 44231U 19027A   22339.65795240 -.00000235  00000+0  00000+0 0  9999
2 44231   1.2759  80.0986 0006352 129.2985 246.4594  1.00272320 13143
BEIDOU-3 IGSO-2 (C39)   
1 44337U 19035A   22337.45188355 -.00000042  00000+0  00000+0 0  9990
2 44337  55.1319 170.2221 0025880 188.1190 353.7168  1.00252377 12747
BEIDOU-3 M23 (C45)      
1 44542U 19061A   22337.33521186  .00000008  00000+0  00000+0 0  9998
2 44542  54.5396 226.3809 0008928 353.6838   6.3746  1.86231510 21732
BEIDOU-3 M24 (C46)      
1 44543U 19061B   22337.76433240  .00000013  00000+0  00000+0 0  9995
2 44543  54.5382 226.3356 0005930 342.7066 216.5797  1.86231949 21734
BEIDOU-3 IGSO-3         
1 44709U 19073A   22339.55574178 -.00000220  00000+0  10000-3 0  9993
2 44709  56.9911 294.6019 0026333 183.2215 274.6845  1.00257033 11512
BEIDOU-3 M21            
1 44793U 19078A   22339.42881751 -.00000096  00000+0  10000-3 0  9996
2 44793  54.9043 344.7282 0005692 358.1651  69.8134  1.86232219 20631
BEIDOU-3 M22            
1 44794U 19078B   22339.58163366 -.00000096  00000+0  00000+0 0  9994
2 44794  54.8767 344.7103 0003998 347.2187  95.1777  1.86232689 20632
BEIDOU-3 M19            
1 44864U 19090A   22338.76916390 -.00000014  00000+0  00000+0 0  9998
2 44864  55.5192 105.8371 0015444 267.0638 184.9109  1.86231817 20203
BEIDOU-3 M20            
1 44865U 19090B   22339.54363503 -.00000022  00000+0  00000+0 0  9997
2 44865  55.5211 105.8436 0013210 281.9902  59.0706  1.86231783 20180
BEIDOU-3 G2             
1 45344U 20017A   22339.49927241 -.00000132  00000+0  00000+0 0  9992
2 45344   1.9965   1.1493 0002224 209.0354 123.8797  1.00272215 10326
BEIDOU-3 G3             
1 45807U 20040A   22339.49302569 -.00000342  00000+0  00000+0 0  9995
2 45807   1.0671 310.3419 0009145 340.3920  71.5924  1.00269166  9145
